BEIDOU-2 M4 (C12)       
1 38251U 12018B   25013.34852064 -.00000098  00000+0  00000+0 0  9990
2 38251  56.0928 321.5887 0015245 276.3032  83.5178  1.86232070 86268
BEIDOU-2 M6 (C14)       
1 38775U 12050B   25014.13230749 -.00000042  00000+0  00000+0 0  9994
2 38775  56.0872  80.1218 0012209 334.9486  25.0519  1.86230929 83644
BEIDOU-2 G6 (C02)       
1 38953U 12059A   25014.64121073 -.00000178  00000+0  00000+0 0  9996
2 38953   3.1010  78.7851 0008952 287.9054  62.4833  1.00271541 44702
BEIDOU-3S IGSO-1S (C31) 
1 40549U 15019A   25014.60330512 -.00000172  00000+0  00000+0 0  9999
2 40549  50.1768 301.6838 0033983 197.1900 286.9849  1.00257144 35876
BEIDOU-3S M2S (C58)     
1 40748U 15037A   25012.47584168 -.00000098  00000+0  00000+0 0  9998
2 40748  55.3191 319.9072 0011654 268.1431  91.7181  1.86229032 64428
BEIDOU-3S M1S (C57)     
1 40749U 15037B   25014.36039730 -.00000095  00000+0  00000+0 0  9996
2 40749  55.3201 319.8297 0004660 336.6510  23.3279  1.86227558 64461
BEIDOU-3S IGSO-2S (C56) 
1 40938U 15053A   25014.60861299 -.00000090  00000+0  00000+0 0  9999
2 40938  50.0253 264.9273 0051698 187.4665 335.5359  1.00257687 34152
BEIDOU-2 IGSO-6 (C13)   
1 41434U 16021A   25014.54626715 -.00000147  00000+0  00000+0 0  9995
2 41434  59.4892  43.2183 0055180 228.5652 136.0551  1.00273732 32286
